[{"OBJECT_NAME":"ICEYE-X63","OBJECT_ID":"2026-004K","EPOCH":"2026-03-09T23:23:40.922880","MEAN_MOTION":14.88075839,"ECCENTRICITY":0.00058015,"INCLINATION":97.8005,"RA_OF_ASC_NODE":69.1882,"ARG_OF_PERICENTER":95.6697,"MEAN_ANOMALY":264.5181,"EPHEMERIS_TYPE":0,"CLASSIFICATION_TYPE":"U","NORAD_CAT_ID":67372,"ELEMENT_SET_NO":999,"REV_AT_EPOCH":854,"BSTAR":0.00030090625,"MEAN_MOTION_DOT":2.713e-5,"MEAN_MOTION_DDOT":0},{"OBJECT_NAME":"SL-24 DEB","OBJECT_ID":"2004-025J","EPOCH":"2026-03-09T21:58:32.500416","MEAN_MOTION":14.8450567,"ECCENTRICITY":0.00111316,"INCLINATION":98.2115,"RA_OF_ASC_NODE":37.4638,"ARG_OF_PERICENTER":288.0925,"MEAN_ANOMALY":134.7613,"EPHEMERIS_TYPE":0,"CLASSIFICATION_TYPE":"U","NORAD_CAT_ID":28374,"ELEMENT_SET_NO":999,"REV_AT_EPOCH":15740,"BSTAR":0.0013371702,"MEAN_MOTION_DOT":0.00011238,"MEAN_MOTION_DDOT":0}]
